1 27704U 03010A   19001.84440087 -.00000087  00000-0  00000-0 0  9996
2 27704  54.2384  74.8817 0249019 274.1992  37.9816  2.00576737115482
1 27704U 03010A   19002.32087887 -.00000086  00000-0  00000+0 0  9993
2 27704  54.2388  74.8620 0249031 274.2088  22.0370  2.00576782115490
1 27704U 03010A   19003.53470656 -.00000080  00000-0  00000+0 0  9991
2 27704  54.2396  74.8118 0249072 274.2376 178.5143  2.00576906115512
1 27704U 03010A   19004.34614139 -.00000075  00000-0  00000+0 0  9991
2 27704  54.2402  74.7783 0249106 274.2533  44.4366  2.00576988115530
1 27704U 03010A   19004.81592003 -.00000071  00000-0  00000-0 0  9995
2 27704  54.2405  74.7589 0249121 274.2630  23.6547  2.00577029115540
1 27704U 03010A   19005.54982590 -.00000067  00000-0  00000+0 0  9994
2 27704  54.2410  74.7286 0249133 274.2799 193.5923  2.00577096115559
1 27704U 03010A   19006.39179435 -.00000062  00000-0  00000+0 0  9999
2 27704  54.2416  74.6938 0249158 274.2961  81.5630  2.00577172115574
1 27704U 03010A   19007.48861816 -.00000057  00000-0  00000+0 0  9995
2 27704  54.2424  74.6485 0249184 274.3197 153.5581  2.00577258115593
1 27704U 03010A   19008.42370082 -.00000054  00000-0  00000+0 0  9997
2 27704  54.2431  74.6099 0249210 274.3386 108.7646  2.00577328115617
1 27704U 03010A   19008.42370082 -.00000054  00000-0  00000-0 0  9998
2 27704  54.2431  74.6099 0249210 274.3386 108.7646  2.00577328115628
1 27704U 03010A   19009.42485847 -.00000052  00000-0  00000+0 0  9992
2 27704  54.2438  74.5686 0249252 274.3613 111.6801  2.00577391115632
1 27704U 03010A   19009.42485847 -.00000052  00000-0  00000-0 0  9993
2 27704  54.2438  74.5686 0249252 274.3613 111.6801  2.00577391115643
1 27704U 03010A   19010.87846378 -.00000052  00000-0  00000-0 0  9994
2 27704  54.2448  74.5086 0249298 274.3931  81.3008  2.00577477115660
1 27704U 03010A   19011.55565687 -.00000051  00000-0  00000+0 0  9999
2 27704  54.2453  74.4806 0249314 274.4091 210.2881  2.00577514115677
1 27704U 03010A   19012.31266407 -.00000051  00000-0  00000+0 0  9992
2 27704  54.2458  74.4493 0249346 274.4264  36.9081  2.00577552115690
1 27704U 03010A   19013.08028378 -.00000050  00000-0  00000+0 0  9999
2 27704  54.2464  74.4175 0249373 274.4456 231.1896  2.00577586115709
1 27704U 03010A   19013.80183299 -.00000049  00000-0  00000-0 0  9992
2 27704  54.2469  74.3877 0249401 274.4620  32.2065  2.00577620115726
1 27704U 03010A   19014.51334094 -.00000047  00000-0  00000+0 0  9999
2 27704  54.2474  74.3583 0249423 274.4792 185.9718  2.00577652115737
1 27704U 03010A   19014.81270951 -.00000047  00000-0  00000-0 0  9994
2 27704  54.2476  74.3459 0249434 274.4850  42.1412  2.00577664115747
1 27704U 03010A   19015.28514821 -.00000045  00000-0  00000+0 0  9990
2 27704  54.2480  74.3264 0249453 274.4964  23.2796  2.00577684115751
1 27704U 03010A   19015.52685154 -.00000045  00000-0  00000-0 0  9996
2 27704  54.2482  74.3164 0249461 274.5029 197.8081  2.00577694115761
1 27704U 03010A   19016.47010946 -.00000041  00000-0  00000+0 0  9997
2 27704  54.2489  74.2774 0249491 274.5232 158.9181  2.00577737115771
1 27704U 03010A   19016.53610292 -.00000041  00000-0  00000-0 0  9995
2 27704  54.2489  74.2747 0249494 274.5250 206.5705  2.00577739115789
1 27704U 03010A   19017.54889676 -.00000037  00000-0  00000+0 0  9995
2 27704  54.2497  74.2328 0249530 274.5480 217.8902  2.00577783115793
1 27704U 03010A   19017.54889676 -.00000037  00000-0  00000-0 0  9996
2 27704  54.2497  74.2328 0249530 274.5480 217.8902  2.00577783115805
1 27704U 03010A   19018.54206560 -.00000033  00000-0  00000+0 0  9997
2 27704  54.2504  74.1918 0249566 274.5705 215.0394  2.00577832115818
1 27704U 03010A   19018.79671594 -.00000032  00000-0  00000-0 0  9997
2 27704  54.2506  74.1812 0249577 274.5752  38.9188  2.00577846115826
1 27704U 03010A   19019.50997426 -.00000030  00000-0  00000+0 0  9999
2 27704  54.2512  74.1517 0249602 274.5927 193.9485  2.00577881115830
1 27704U 03010A   19019.50997426 -.00000030  00000-0  00000-0 0  9990
2 27704  54.2512  74.1517 0249602 274.5927 193.9485  2.00577881115841
1 27704U 03010A   19019.85212734 -.00000029  00000-0  00000-0 0  9998
2 27704  54.2514  74.1375 0249613 274.5990  81.0126  2.00577902115840
1 27704U 03010A   19020.52728252 -.00000029  00000-0  00000-0 0  9991
2 27704  54.2519  74.1096 0249632 274.6156 208.5291  2.00577940115853
1 27704U 03010A   19021.53554495 -.00000030  00000-0  00000-0 0  9991
2 27704  54.2526  74.0679 0249671 274.6405 216.5757  2.00578002115875
1 27704U 03010A   19022.37344125 -.00000033  00000-0  00000+0 0  9993
2 27704  54.2533  74.0332 0249702 274.6583 101.6073  2.00578062115894
1 27704U 03010A   19022.53932586 -.00000034  00000-0  00000-0 0  9997
2 27704  54.2534  74.0263 0249704 274.6634 221.3884  2.00578071115909
1 27704U 03010A   19023.41016296 -.00000040  00000-0  00000+0 0  9992
2 27704  54.2540  73.9903 0249735 274.6819 130.2064  2.00578137115916
1 27704U 03010A   19024.33900685 -.00000048  00000-0  00000+0 0  9996
2 27704  54.2547  73.9518 0249759 274.7012  80.9109  2.00578211115933
1 27704U 03010A   19024.80580448 -.00000052  00000-0  00000+0 0  9994
2 27704  54.2551  73.9325 0249774 274.7114  57.9780  2.00578248115944
1 27704U 03010A   19024.80580448 -.00000052  00000-0  00000-0 0  9995
2 27704  54.2551  73.9325 0249774 274.7114  57.9780  2.00578248115944
1 27704U 03010A   19025.50922531 -.00000058  00000-0  00000-0 0  9992
2 27704  54.2556  73.9034 0249792 274.7290 205.9050  2.00578307115964
1 27704U 03010A   19026.55591167 -.00000066  00000-0  00000+0 0  9993
2 27704  54.2564  73.8601 0249827 274.7530 241.7000  2.00578398115972
1 27704U 03010A   19026.55591167 -.00000066  00000-0  00000-0 0  9994
2 27704  54.2564  73.8601 0249827 274.7530 241.7000  2.00578398115983
1 27704U 03010A   19027.49322272 -.00000070  00000-0  00000-0 0  9992
2 27704  54.2571  73.8213 0249858 274.7740 198.5177  2.00578486116003
1 27704U 03010A   19027.53760745 -.00000070  00000-0  00000+0 0  9997
2 27704  54.2572  73.8195 0249863 274.7756 230.5665  2.00578489115995
1 27704U 03010A   19028.82582455 -.00000071  00000-0  00000-0 0  9992
2 27704  54.2582  73.7663 0249911 274.8036  80.7691  2.00578613116029
1 27704U 03010A   19029.43705057 -.00000070  00000-0  00000+0 0  9993
2 27704  54.2586  73.7410 0249919 274.8171 162.1264  2.00578673116039
1 27704U 03010A   19030.81565109 -.00000063  00000-0  00000-0 0  9992
2 27704  54.2597  73.6840 0249942 274.8432  77.5981  2.00578809116062
1 27704U 03010A   19031.46586032 -.00000058  00000-0  00000+0 0  9995
2 27704  54.2602  73.6572 0249958 274.8615 187.1010  2.00578871116072
1 27704U 03010A   19032.47266420 -.00000051  00000-0  00000+0 0  9996
2 27704  54.2609  73.6156 0249968 274.8808 194.1030  2.00578966116099
1 27704U 03010A   19033.31496566 -.00000046  00000-0  00000+0 0  9990
2 27704  54.2623  73.5782 0249133 275.0465  81.9548  2.00549084116114
1 27704U 03010A   19033.54961767 -.00000044  00000-0  00000-0 0  9994
2 27704  54.2617  73.5710 0249216 275.0587 251.3671  2.00548861116128
1 27704U 03010A   19034.49424130 -.00000040  00000-0  00000+0 0  9992
2 27704  54.2625  73.5321 0249227 275.0853 213.3578  2.00548717116138
1 27704U 03010A   19035.51025804 -.00000036  00000-0  00000+0 0  9996
2 27704  54.2632  73.4901 0249254 275.1067 226.9001  2.00548823116158
1 27704U 03010A   19036.28821576 -.00000034  00000-0  00000+0 0  9999
2 27704  54.2638  73.4580 0249285 275.1262  68.5659  2.00548877116178
1 27704U 03010A   19037.41199419 -.00000033  00000-0  00000+0 0  9998
2 27704  54.2647  73.4117 0249296 275.1468 159.9133  2.00548952116192
1 27704U 03010A   19037.77469640 -.00000032  00000-0  00000-0 0  9993
2 27704  54.2649  73.3967 0249307 275.1539  61.7772  2.00548976116205
1 27704U 03010A   19038.54621741 -.00000032  00000-0  00000+0 0  9990
2 27704  54.2655  73.3649 0249323 275.1748 258.7946  2.00549014116215
1 27704U 03010A   19038.54621741 -.00000032  00000-0  00000-0 0  9991
2 27704  54.2655  73.3649 0249323 275.1748 258.7946  2.00549014116226
1 27704U 03010A   19038.80451201 -.00000032  00000-0  00000-0 0  9992
2 27704  54.2657  73.3543 0249335 275.1817  85.2766  2.00549029116231
1 27704U 03010A   19039.43231631 -.00000031  00000-0  00000+0 0  9993
2 27704  54.2662  73.3284 0249343 275.1972 178.5361  2.00549061116233
1 27704U 03010A   19040.44567045 -.00000029  00000-0  00000+0 0  9994
2 27704  54.2670  73.2865 0249357 275.2193 190.1564  2.00549107116255
1 27704U 03010A   19041.51824302 -.00000027  00000-0  00000+0 0  9993
2 27704  54.2678  73.2422 0249374 275.2436 244.5304  2.00549156116273
1 27704U 03010A   19042.47063851 -.00000024  00000-0  00000+0 0  9990
2 27704  54.2686  73.2029 0249393 275.2665 212.1381  2.00549199116295
1 27704U 03010A   19043.55366123 -.00000020  00000-0  00000+0 0  9994
2 27704  54.2694  73.1582 0249413 275.2913 274.0572  2.00549245116310
1 27704U 03010A   19043.89606569 -.00000018  00000-0  00000-0 0  9990
2 27704  54.2697  73.1440 0249424 275.2996 161.2654  2.00549261116337
1 27704U 03010A   19044.50033794 -.00000015  00000-0  00000+0 0  9999
2 27704  54.2702  73.1191 0249430 275.3122 237.5384  2.00549289116333
1 27704U 03010A   19046.28243736 -.00000008  00000-0  00000+0 0  9997
2 27704  54.2716  73.0455 0249469 275.3517  84.1779  2.00549374116373
1 27704U 03010A   19046.92876779 -.00000006  00000-0  00000-0 0  9996
2 27704  54.2721  73.0188 0249482 275.3693 190.8122  2.00549405116396
1 27704U 03010A   19047.47418326 -.00000005  00000-0  00000+0 0  9995
2 27704  54.2725  72.9962 0249492 275.3822 224.5904  2.00549434116398
1 27704U 03010A   19047.77805819 -.00000005  00000-0  00000-0 0  9996
2 27704  54.2728  72.9837 0249501 275.3881  83.9830  2.00549453116417
1 27704U 03010A   19048.31741552 -.00000005  00000-0  00000+0 0  9999
2 27704  54.2732  72.9614 0249510 275.4007 113.3877  2.00549484116419
